$$SOE
2459580.500000000, A.D. 2022-Jan-01 00:00:00.0000, -5.000347609412983E+08, 1.828590215674019E+08, -4.409849824299506E+07,
2459587.500000000, A.D. 2022-Jan-08 00:00:00.0000, -5.026102302274649E+08, 1.745261347125961E+08, -4.543760865337205E+07,
2459594.500000000, A.D. 2022-Jan-15 00:00:00.0000, -5.050255087611350E+08, 1.661376106412973E+08, -4.676223035492539E+07,
2459601.500000000, A.D. 2022-Jan-22 00:00:00.0000, -5.072795663618628E+08, 1.576960384573773E+08, -4.807191765488053E+07,
2459608.500000000, A.D. 2022-Jan-29 00:00:00.0000, -5.093713985953040E+08, 1.492040281183818E+08, -4.936622602596293E+07,
2459615.500000000, A.D. 2022-Feb-05 00:00:00.0000, -5.113000291636798E+08, 1.406642101218223E+08, -5.064471194013417E+07,
2459622.500000000, A.D. 2022-Feb-12 00:00:00.0000, -5.130645101513207E+08, 1.320792341315014E+08, -5.190693299065974E+07,
2459629.500000000, A.D. 2022-Feb-19 00:00:00.0000, -5.146639214485152E+08, 1.234517689118614E+08, -5.315244798712814E+07,
2459636.500000000, A.D. 2022-Feb-26 00:00:00.0000, -5.160973706648746E+08, 1.147845028457962E+08, -5.438081696231273E+07,
2459643.500000000, A.D. 2022-Mar-05 00:00:00.0000, -5.173639933735498E+08, 1.060801444178816E+08, -5.559160115623931E+07,
2459650.500000000, A.D. 2022-Mar-12 00:00:00.0000, -5.184629534652500E+08, 9.734142259633482E+07, -5.678436300359209E+07,
2459657.500000000, A.D. 2022-Mar-19 00:00:00.0000, -5.193934435420315E+08, 8.857108714093626E+07, -5.795866612920831E+07,
2459664.500000000, A.D. 2022-Mar-26 00:00:00.0000, -5.201546853296400E+08, 7.977190883046001E+07, -5.911407535478890E+07,
2459671.500000000, A.D. 2022-Apr-02 00:00:00.0000, -5.207459300416965E+08, 7.094667955347899E+07, -6.025015672816583E+07,
2459678.500000000, A.D. 2022-Apr-09 00:00:00.0000, -5.211664584245363E+08, 6.209821226711453E+07, -6.136647760014336E+07,
2459685.500000000, A.D. 2022-Apr-16 00:00:00.0000, -5.214155801261666E+08, 5.322934147741086E+07, -6.246260672856726E+07,
2459692.500000000, A.D. 2022-Apr-23 00:00:00.0000, -5.214926336587910E+08, 4.434292532485949E+07, -6.353811420492627E+07,
2459699.500000000, A.D. 2022-Apr-30 00:00:00.0000, -5.213969888263946E+08, 3.544184702893487E+07, -6.459257121591382E+07,
2459706.500000000, A.D. 2022-May-07 00:00:00.0000, -5.211280485562227E+08, 2.652901371794608E+07, -6.562555008267017E+07,
2459713.500000000, A.D. 2022-May-14 00:00:00.0000, -5.206852487447350E+08, 1.760735568237042E+07, -6.663662445687822E+07,
2459720.500000000, A.D. 2022-May-21 00:00:00.0000, -5.200680581487157E+08, 8.679826809184950E+06, -6.762536942530924E+07,
2459727.500000000, A.D. 2022-May-28 00:00:00.0000, -5.192759788011687E+08, -2.505947630894333E+05, -6.859136155751440E+07,
2459734.500000000, A.D. 2022-Jun-04 00:00:00.0000, -5.183085466761086E+08, -9.180906082444455E+06, -6.953417894800641E+07,
2459741.500000000, A.D. 2022-Jun-11 00:00:00.0000, -5.171653324584473E+08, -1.810807891312244E+07, -7.045340126625462E+07,
2459748.500000000, A.D. 2022-Jun-18 00:00:00.0000, -5.158459423809155E+08, -2.702905934462188E+07, -7.134860981709951E+07,
2459755.500000000, A.D. 2022-Jun-25 00:00:00.0000, -5.143500190991927E+08, -3.594076751414474E+07, -7.221938761712058E+07,
2459762.500000000, A.D. 2022-Jul-02 00:00:00.0000, -5.126772424718692E+08, -4.484009750929901E+07, -7.306531950474408E+07,
2459769.500000000, A.D. 2022-Jul-09 00:00:00.0000, -5.108273298555800E+08, -5.372391727522215E+07, -7.388599230551432E+07,
2459776.500000000, A.D. 2022-Jul-16 00:00:00.0000, -5.088000359709312E+08, -6.258906744463569E+07, -7.468099495900109E+07,
2459783.500000000, A.D. 2022-Jul-23 00:00:00.0000, -5.065951545381578E+08, -7.143235901492968E+07, -7.544991839940965E+07,
2459790.500000000, A.D. 2022-Jul-30 00:00:00.0000, -5.042125215999432E+08, -8.025057322827217E+07, -7.619235547205047E+07,
2459797.500000000, A.D. 2022-Aug-06 00:00:00.0000, -5.016520169343116E+08, -8.904046300790316E+07, -7.690790116310577E+07,
2459804.500000000, A.D. 2022-Aug-13 00:00:00.0000, -4.989135643809476E+08, -9.779875319727525E+07, -7.759615284187710E+07,
2459811.500000000, A.D. 2022-Aug-20 00:00:00.0000, -4.959971326501427E+08, -1.065221401075830E+08, -7.825671041251275E+07,
2459818.500000000, A.D. 2022-Aug-27 00:00:00.0000, -4.929027365470464E+08, -1.152072911029087E+08, -7.888917644105506E+07,
2459825.500000000, A.D. 2022-Sep-03 00:00:00.0000, -4.896304383646078E+08, -1.238508443359441E+08, -7.949315628998680E+07,
2459832.500000000, A.D. 2022-Sep-10 00:00:00.0000, -4.861803493562782E+08, -1.324494086126004E+08, -8.006825826697621E+07,
2459839.500000000, A.D. 2022-Sep-17 00:00:00.0000, -4.825526312600155E+08, -1.409995633895442E+08, -8.061409379107705E+07,
2459846.500000000, A.D. 2022-Sep-24 00:00:00.0000, -4.787474978140513E+08, -1.494978589579484E+08, -8.113027758658463E+07,
2459853.500000000, A.D. 2022-Oct-01 00:00:00.0000, -4.747652160252955E+08, -1.579408168381389E+08, -8.161642792896387E+07,
2459860.500000000, A.D. 2022-Oct-08 00:00:00.0000, -4.706061067836407E+08, -1.663249298652534E+08, -8.207216693807516E+07,
2459867.500000000, A.D. 2022-Oct-15 00:00:00.0000, -4.662705457538642E+08, -1.746466607688584E+08, -8.249712073558027E+07,
2459874.500000000, A.D. 2022-Oct-22 00:00:00.0000, -4.617589667261322E+08, -1.829024409331597E+08, -8.289091940435010E+07,
2459881.500000000, A.D. 2022-Oct-29 00:00:00.0000, -4.570718649273146E+08, -1.910886719347633E+08, -8.325319719152115E+07,
2459888.500000000, A.D. 2022-Nov-05 00:00:00.0000, -4.522097981938472E+08, -1.992017271201406E+08, -8.358359292427823E+07,
2459895.500000000, A.D. 2022-Nov-12 00:00:00.0000, -4.471733879701789E+08, -2.072379519591255E+08, -8.388175035492095E+07,
2459902.500000000, A.D. 2022-Nov-19 00:00:00.0000, -4.419633208517187E+08, -2.151936641330416E+08, -8.414731844787955E+07,
2459909.500000000, A.D. 2022-Nov-26 00:00:00.0000, -4.365803504106637E+08, -2.230651537595623E+08, -8.437995166629450E+07,
2459916.500000000, A.D. 2022-Dec-03 00:00:00.0000, -4.310252991397049E+08, -2.308486837701020E+08, -8.457931027541552E+07,
2459923.500000000, A.D. 2022-Dec-10 00:00:00.0000, -4.252990604686280E+08, -2.385404904248114E+08, -8.474506066622412E+07,
2459930.500000000, A.D. 2022-Dec-17 00:00:00.0000, -4.194026008288577E+08, -2.461367839938840E+08, -8.487687570402774E+07,
2459937.500000000, A.D. 2022-Dec-24 00:00:00.0000, -4.133369616557388E+08, -2.536337496749856E+08, -8.497443511771376E+07,
2459944.500000000, A.D. 2022-Dec-31 00:00:00.0000, -4.071032609697359E+08, -2.610275486435605E+08, -8.503742595389435E+07,
2459951.500000000, A.D. 2023-Jan-07 00:00:00.0000, -4.007026944122698E+08, -2.683143182780258E+08, -8.506554302869572E+07,
2459958.500000000, A.D. 2023-Jan-14 00:00:00.0000, -3.941365377010350E+08, -2.754901710676818E+08, -8.505848915624125E+07,
2459965.500000000, A.D. 2023-Jan-21 00:00:00.0000, -3.874061511473478E+08, -2.825511953815061E+08, -8.501597535429120E+07,
2459972.500000000, A.D. 2023-Jan-28 00:00:00.0000, -3.805129825662928E+08, -2.894934582993551E+08, -8.493772138012691E+07,
2459979.500000000, A.D. 2023-Feb-04 00:00:00.0000, -3.734585687867378E+08, -2.963130074829795E+08, -8.482345633048287E+07,
2459986.500000000, A.D. 2023-Feb-11 00:00:00.0000, -3.662445375535574E+08, -3.030058722850810E+08, -8.467291915658247E+07,
2459993.500000000, A.D. 2023-Feb-18 00:00:00.0000, -3.588726098815678E+08, -3.095680649247527E+08, -8.448585915564136E+07,
2460000.500000000, A.D. 2023-Feb-25 00:00:00.0000, -3.513446025945115E+08, -3.159955818969588E+08, -8.426203647627822E+07,
2460007.500000000, A.D. 2023-Mar-04 00:00:00.0000, -3.436624309431447E+08, -3.222844056033726E+08, -8.400122264591186E+07,
2460014.500000000, A.D. 2023-Mar-11 00:00:00.0000, -3.358281112698800E+08, -3.284305062100788E+08, -8.370320112289138E+07,
2460021.500000000, A.D. 2023-Mar-18 00:00:00.0000, -3.278437636684840E+08, -3.344298437874812E+08, -8.336776788171750E+07,
2460028.500000000, A.D. 2023-Mar-25 00:00:00.0000, -3.197116144305016E+08, -3.402783707854962E+08, -8.299473205374046E+07,
2460035.500000000, A.D. 2023-Apr-01 00:00:00.0000, -3.114339978483502E+08, -3.459720344565066E+08, -8.258391662991862E+07,
2460042.500000000, A.D. 2023-Apr-08 00:00:00.0000, -3.030133579842491E+08, -3.515067780067351E+08, -8.213515906873196E+07,
2460049.500000000, A.D. 2023-Apr-15 00:00:00.0000, -2.944522527347556E+08, -3.568785415878183E+08, -8.164831168484092E+07,
2460056.500000000, A.D. 2023-Apr-22 00:00:00.0000, -2.857533583742033E+08, -3.620832661870914E+08, -8.112324223372711E+07,
2460063.500000000, A.D. 2023-Apr-29 00:00:00.0000, -2.769194718351037E+08, -3.671168981705900E+08, -8.055983475916968E+07,
2460070.500000000, A.D. 2023-May-06 00:00:00.0000, -2.679535124782602E+08, -3.719753927032257E+08, -7.995799039621863E+07,
2460077.500000000, A.D. 2023-May-13 00:00:00.0000, -2.588585243203927E+08, -3.766547169443173E+08, -7.931762811235066E+07,
2460084.500000000, A.D. 2023-May-20 00:00:00.0000, -2.496376784748065E+08, -3.811508535141495E+08, -7.863868544757847E+07,
2460091.500000000, A.D. 2023-May-27 00:00:00.0000, -2.402942756003836E+08, -3.854598042659872E+08, -7.792111927296180E+07,
2460098.500000000, A.D. 2023-Jun-03 00:00:00.0000, -2.308317482897218E+08, -3.895775943429998E+08, -7.716490657016982E+07,
2460105.500000000, A.D. 2023-Jun-10 00:00:00.0000, -2.212536633609921E+08, -3.935002765391889E+08, -7.637004523492706E+07,
2460112.500000000, A.D. 2023-Jun-17 00:00:00.0000, -2.115637239526130E+08, -3.972239360290010E+08, -7.553655491672246E+07,
2460119.500000000, A.D. 2023-Jun-24 00:00:00.0000, -2.017657710882799E+08, -4.007446954133829E+08, -7.466447791846693E+07,
2460126.500000000, A.D. 2023-Jul-01 00:00:00.0000, -1.918637844456329E+08, -4.040587192560833E+08, -7.375388010997126E+07,
2460133.500000000, A.D. 2023-Jul-08 00:00:00.0000, -1.818618839871468E+08, -4.071622172885780E+08, -7.280485163232800E+07,
2460140.500000000, A.D. 2023-Jul-15 00:00:00.0000, -1.717643337124426E+08, -4.100514491136407E+08, -7.181750750512514E+07,
$$EOE